{
  "type": "FeatureCollection",
  "features": [
    {
      "type": "Feature",
      "properties": {
        "norad_id": 39227,
        "name": "ARIRANG-5 (KOMPSAT-5)",
        "group": "resource",
        "lat": 71.70366823744497,
        "lon": 22.014227935412702,
        "alt_km": 545.1725618962037,
        "timestamp": "2025-12-19T22:41:52.036069+00:00",
        "meta_object_name": "ARIRANG-5 (KOMPSAT-5)",
        "meta_object_id": "2013-042A",
        "meta_epoch": "2025-12-19T19:02:00.157632",
        "meta_mean_motion": 15.04537339,
        "meta_eccentricity": 0.0003444,
        "meta_inclination": 97.6152,
        "meta_ra_of_asc_node": 177.9957,
        "meta_arg_of_pericenter": 38.0548,
        "meta_mean_anomaly": 322.0921,
        "meta_ephemeris_type": 0,
        "meta_classification_type": "U",
        "meta_norad_cat_id": 39227,
        "meta_element_set_no": 999,
        "meta_rev_at_epoch": 67688,
        "meta_bstar": 0.0001723,
        "meta_mean_motion_dot": 2.354e-05,
        "meta_mean_motion_ddot": 0,
        "tle_line1": "1 39227U 13042A   25353.79305738  .00002354  00000+0  17230-3 0  9992",
        "tle_line2": "2 39227  97.6152 177.9957 0003444  38.0548 322.0921 15.04537339676887"
      },
      "geometry": {
        "type": "Point",
        "coordinates": [
          22.014227935412702,
          71.70366823744497
        ]
      }
    },
    {
      "type": "Feature",
      "properties": {
        "norad_id": 39418,
        "name": "SKYSAT-A",
        "group": "resource",
        "lat": -55.42857856637586,
        "lon": 54.82170985078633,
        "alt_km": 539.0640386438927,
        "timestamp": "2025-12-19T22:41:52.036080+00:00",
        "meta_object_name": "SKYSAT-A",
        "meta_object_id": "2013-066C",
        "meta_epoch": "2025-12-19T02:17:36.318336",
        "meta_mean_motion": 15.11647877,
        "meta_eccentricity": 0.00211813,
        "meta_inclination": 97.4101,
        "meta_ra_of_asc_node": 43.1111,
        "meta_arg_of_pericenter": 213.5251,
        "meta_mean_anomaly": 146.464,
        "meta_ephemeris_type": 0,
        "meta_classification_type": "U",
        "meta_norad_cat_id": 39418,
        "meta_element_set_no": 999,
        "meta_rev_at_epoch": 66126,
        "meta_bstar": 0.00019515102,
        "meta_mean_motion_dot": 3.271e-05,
        "meta_mean_motion_ddot": 0,
        "tle_line1": "1 39418U 13066C   25353.09555924  .00003271  00000+0  19515-3 0  9994",
        "tle_line2": "2 39418  97.4101  43.1111 0021181 213.5251 146.4640 15.11647877661265"
      },
      "geometry": {
        "type": "Point",
        "coordinates": [
          54.82170985078633,
          -55.42857856637586
        ]
      }
    },
    {
      "type": "Feature",
      "properties": {
        "norad_id": 39419,
        "name": "DUBAISAT-2",
        "group": "resource",
        "lat": 1.92640111580727,
        "lon": -16.120647148510294,
        "alt_km": 541.2664862853799,
        "timestamp": "2025-12-19T22:41:52.036090+00:00",
        "meta_object_name": "DUBAISAT-2",
        "meta_object_id": "2013-066D",
        "meta_epoch": "2025-12-19T17:54:46.699776",
        "meta_mean_motion": 15.08416116,
        "meta_eccentricity": 0.0009951,
        "meta_inclination": 97.4441,
        "meta_ra_of_asc_node": 343.9381,
        "meta_arg_of_pericenter": 294.776,
        "meta_mean_anomaly": 65.2433,
        "meta_ephemeris_type": 0,
        "meta_classification_type": "U",
        "meta_norad_cat_id": 39419,
        "meta_element_set_no": 999,
        "meta_rev_at_epoch": 65932,
        "meta_bstar": 0.00013301,
        "meta_mean_motion_dot": 2.01e-05,
        "meta_mean_motion_ddot": 0,
        "tle_line1": "1 39419U 13066D   25353.74637384  .00002010  00000+0  13301-3 0  9995",
        "tle_line2": "2 39419  97.4441 343.9381 0009951 294.7760  65.2433 15.08416116659328"
      },
      "geometry": {
        "type": "Point",
        "coordinates": [
          -16.120647148510294,
          1.92640111580727
        ]
      }
    },
    {
      "type": "Feature",
      "properties": {
        "norad_id": 39574,
        "name": "GPM-CORE",
        "group": "resource",
        "lat": 14.975918606442784,
        "lon": -164.26911783887755,
        "alt_km": 436.60350332513644,
        "timestamp": "2025-12-19T22:41:52.036100+00:00",
        "meta_object_name": "GPM-CORE",
        "meta_object_id": "2014-009C",
        "meta_epoch": "2025-12-19T16:24:37.475712",
        "meta_mean_motion": 15.44565565,
        "meta_eccentricity": 0.0009432,
        "meta_inclination": 64.9719,
        "meta_ra_of_asc_node": 189.4279,
        "meta_arg_of_pericenter": 247.8488,
        "meta_mean_anomaly": 112.1651,
        "meta_ephemeris_type": 0,
        "meta_classification_type": "U",
        "meta_norad_cat_id": 39574,
        "meta_element_set_no": 999,
        "meta_rev_at_epoch": 67008,
        "meta_bstar": 0.00012886,
        "meta_mean_motion_dot": 5.774e-05,
        "meta_mean_motion_ddot": 0,
        "tle_line1": "1 39574U 14009C   25353.68376708  .00005774  00000+0  12886-3 0  9995",
        "tle_line2": "2 39574  64.9719 189.4279 0009432 247.8488 112.1651 15.44565565670089"
      },
      "geometry": {
        "type": "Point",
        "coordinates": [
          -164.26911783887755,
          14.975918606442784
        ]
      }
    },
    {
      "type": "Feature",
      "properties": {
        "norad_id": 39634,
        "name": "SENTINEL-1A",
        "group": "resource",
        "lat": 24.100780216137963,
        "lon": -177.22999542727942,
        "alt_km": 694.8864231380021,
        "timestamp": "2025-12-19T22:41:52.036110+00:00",
        "meta_object_name": "SENTINEL-1A",
        "meta_object_id": "2014-016A",
        "meta_epoch": "2025-12-19T18:41:45.766752",
        "meta_mean_motion": 14.5920122,
        "meta_eccentricity": 0.0001268,
        "meta_inclination": 98.1795,
        "meta_ra_of_asc_node": 358.9167,
        "meta_arg_of_pericenter": 84.202,
        "meta_mean_anomaly": 275.9324,
        "meta_ephemeris_type": 0,
        "meta_classification_type": "U",
        "meta_norad_cat_id": 39634,
        "meta_element_set_no": 999,
        "meta_rev_at_epoch": 62385,
        "meta_bstar": -4.6098e-06,
        "meta_mean_motion_dot": -6.7e-07,
        "meta_mean_motion_ddot": 0,
        "tle_line1": "1 39634U 14016A   25353.77900193 -.00000067  00000+0 -46098-5 0  9997",
        "tle_line2": "2 39634  98.1795 358.9167 0001268  84.2020 275.9324 14.59201220623850"
      },
      "geometry": {
        "type": "Point",
        "coordinates": [
          -177.22999542727942,
          24.100780216137963
        ]
      }
    },
    {
      "type": "Feature",
      "properties": {
        "norad_id": 39731,
        "name": "KAZEOSAT 1",
        "group": "resource",
        "lat": 45.50012472751453,
        "lon": 57.10339351855319,
        "alt_km": 747.183546324025,
        "timestamp": "2025-12-19T22:41:52.036120+00:00",
        "meta_object_name": "KAZEOSAT 1",
        "meta_object_id": "2014-024A",
        "meta_epoch": "2025-12-19T17:29:20.003136",
        "meta_mean_motion": 14.42067184,
        "meta_eccentricity": 0.0001163,
        "meta_inclination": 98.3432,
        "meta_ra_of_asc_node": 65.4796,
        "meta_arg_of_pericenter": 95.859,
        "meta_mean_anomaly": 264.2732,
        "meta_ephemeris_type": 0,
        "meta_classification_type": "U",
        "meta_norad_cat_id": 39731,
        "meta_element_set_no": 999,
        "meta_rev_at_epoch": 61269,
        "meta_bstar": 0.00013919,
        "meta_mean_motion_dot": 4.14e-06,
        "meta_mean_motion_ddot": 0,
        "tle_line1": "1 39731U 14024A   25353.72870374  .00000414  00000+0  13919-3 0  9994",
        "tle_line2": "2 39731  98.3432  65.4796 0001163  95.8590 264.2732 14.42067184612695"
      },
      "geometry": {
        "type": "Point",
        "coordinates": [
          57.10339351855319,
          45.50012472751453
        ]
      }
    },
    {
      "type": "Feature",
      "properties": {
        "norad_id": 39766,
        "name": "ALOS-2",
        "group": "resource",
        "lat": 0.8198706142648241,
        "lon": -91.19600345460805,
        "alt_km": 633.7527545776538,
        "timestamp": "2025-12-19T22:41:52.036130+00:00",
        "meta_object_name": "ALOS-2",
        "meta_object_id": "2014-029A",
        "meta_epoch": "2025-12-19T17:01:17.758848",
        "meta_mean_motion": 14.79471141,
        "meta_eccentricity": 0.0001429,
        "meta_inclination": 97.923,
        "meta_ra_of_asc_node": 88.4567,
        "meta_arg_of_pericenter": 98.3883,
        "meta_mean_anomaly": 261.749,
        "meta_ephemeris_type": 0,
        "meta_classification_type": "U",
        "meta_norad_cat_id": 39766,
        "meta_element_set_no": 999,
        "meta_rev_at_epoch": 62504,
        "meta_bstar": 0.00037082,
        "meta_mean_motion_dot": 2.719e-05,
        "meta_mean_motion_ddot": 0,
        "tle_line1": "1 39766U 14029A   25353.70923332  .00002719  00000+0  37082-3 0  9995",
        "tle_line2": "2 39766  97.9230  88.4567 0001429  98.3883 261.7490 14.79471141625041"
      },
      "geometry": {
        "type": "Point",
        "coordinates": [
          -91.19600345460805,
          0.8198706142648241
        ]
      }
    }
  ]
}